STARLINK-32790          
1 63048U 25034V   25316.65104205 -.01246433  00000+0 -47289-1 0  9990
2 63048  53.1578  82.0446 0008492  32.9480 327.2048 15.29142275 41161
STARLINK-32829          
1 63049U 25034W   25316.79267649  .00045897  00000+0  15494-2 0  9990
2 63049  53.1625  94.2876 0000501 359.3766   0.7234 15.30258853 41008
STARLINK-32816          
1 63050U 25034X   25316.77157662  .00050745  00000+0  17091-2 0  9996
2 63050  53.1603  94.1512 0002037  88.3794 271.7440 15.30288175 41007
STARLINK-32835          
1 63051U 25034Y   25316.77896073  .00040743  00000+0  13780-2 0  9991
2 63051  53.1642  94.2052 0001110  73.3940 286.7183 15.30252024 41003
STARLINK-11550 [DTC]    
1 63052U 25035A   25316.82626625  .00424318  00000+0  31054-2 0  9991
2 63052  42.9997 359.5490 0002322 327.9465  32.1261 15.71137913 42849
STARLINK-11563 [DTC]    
1 63053U 25035B   25316.19576666  .00308003  00000+0  23141-2 0  9991
2 63053  42.9997   3.4231 0003863 301.8787  58.1704 15.70856585 42636
STARLINK-11347 [DTC]    
1 63054U 25035C   25316.29120281  .00457253  00000+0  33633-2 0  9990
2 63054  42.9994   3.2942 0003866 295.2823  64.7644 15.70919256 42755
STARLINK-11558 [DTC]    
1 63055U 25035D   25316.17452758  .00300779  00000+0  22565-2 0  9997
2 63055  42.9995   3.2520 0000761 246.6856 113.3932 15.70915256 42630
STARLINK-11392 [DTC]    
1 63056U 25035E   25316.53490709  .00404148  00000+0  29794-2 0  9992
2 63056  43.0004   1.6762 0001866 308.7097  51.3604 15.71024355 42794
STARLINK-11406 [DTC]    
1 63057U 25035F   25316.83688171  .00403804  00000+0  29588-2 0  9997
2 63057  43.0001 359.6301 0002607 331.6021  28.4705 15.71170423 42721
STARLINK-11418 [DTC]    
1 63058U 25035G   25316.61440544  .00324741  00000+0  24199-2 0  9999
2 63058  42.9996   1.4197 0001252 273.4057  86.6668 15.71004588 42682
STARLINK-11509 [DTC]    
1 63059U 25035H   25316.15872764  .00378079  00000+0  28085-2 0  9993
2 63059  43.0000   4.0154 0001378 257.7705 102.3009 15.70920430 42617
STARLINK-11403 [DTC]    
1 63060U 25035J   25316.83336806  .00044827  00000+0  35241-3 0  9996
2 63060  43.0004 359.7987 0001518 261.5692  18.5542 15.70741375  6025
STARLINK-11409 [DTC]    
1 63061U 25035K   25316.83336806 -.00147257  00000+0 -11652-2 0  9999
2 63061  43.0004 359.8858 0001569 264.0799 340.7665 15.70826292  5977
STARLINK-11412 [DTC]    
1 63062U 25035L   25316.84219926  .00361828  00000+0  26679-2 0  9999
2 63062  43.0015 359.6699 0001046 329.0723  31.0083 15.71144874 42841
STARLINK-11399 [DTC]    
1 63063U 25035M   25316.82097067  .00302285  00000+0  22541-2 0  9994
2 63063  42.9987 359.4986 0002181 326.5225  33.5505 15.71056090 42843
STARLINK-11408 [DTC]    
1 63064U 25035N   25316.17983443  .00255499  00000+0  19230-2 0  9990
2 63064  43.0009   3.2860 0001545 236.4104 123.6616 15.70977299 42749
STARLINK-33635          
1 63065U 25035P   25316.08283694  .00054728  00000+0  19817-2 0  9995
2 63065  43.0002  91.2337 0001457 280.6785  79.3903 15.27611521 41747
STARLINK-33622          
1 63066U 25035Q   25316.06483852  .00029403  00000+0  10724-2 0  9992
2 63066  42.9987  91.0874 0002929 281.3358  78.7164 15.27618321 41748
STARLINK-33628          
1 63067U 25035R   25316.10082763  .00045466  00000+0  16500-2 0  9999
2 63067  43.0028  91.3669 0001530 287.0121  73.0563 15.27612052 41746
STARLINK-33627          
1 63068U 25035S   25316.74698206  .00066422  00000+0  24010-2 0  9995
2 63068  43.0032  87.6167 0002432 265.9518  94.1056 15.27587872 41832
STARLINK-33620          
1 63069U 25035T   25316.08927215  .00039309  00000+0  14281-2 0  9991
2 63069  43.0006  91.2821 0001482 296.3964  63.6736 15.27633158 41733
STARLINK-33604          
1 63070U 25035U   25316.76881769  .00044812  00000+0  16247-2 0  9990
2 63070  43.0051  87.7843 0002659 292.7211  67.3360 15.27647104 41832
STARLINK-33624          
1 63071U 25035V   25315.64361756 -.00002779  00000+0 -91590-4 0  9990
2 63071  43.0036  90.4815 0001623 279.4106  80.6562 15.27546199 41600
STARLINK-33623          
1 63072U 25035W   25315.45467637  .00026238  00000+0  95857-3 0  9998
2 63072  43.0047  95.1156 0003995 295.8233  64.2206 15.27610976 41642
STARLINK-33586          
1 63073U 25035X   25316.66199832  .00050138  00000+0  18170-2 0  9990
2 63073  43.0017  80.9045 0001400 275.4282  84.6410 15.27618638 41912
STARLINK-33605          
1 63074U 25035Y   25316.72513252  .00066920  00000+0  24161-2 0  9997
2 63074  43.0016  87.4437 0002042 272.2303  87.8314 15.27624152 41838
STARLINK-32839          
1 63077U 25037A   25316.28403833  .00007553  00000+0  63998-3 0  9995
2 63077  70.0008 290.5664 0002906 270.0103  90.0723 14.98340405 41006
STARLINK-32821          
1 63078U 25037B   25316.28387319  .00012343  00000+0  10402-2 0  9990
2 63078  70.0008 290.5611 0003031 268.6406  91.4406 14.98335539 41003
STARLINK-32817          
1 63079U 25037C   25316.65520797  .00007580  00000+0  64210-3 0  9995
2 63079  70.0004 289.4457 0002824 269.7891  90.2945 14.98348792 41060
STARLINK-32906          
1 63080U 25037D   25316.63452920  .00009509  00000+0  80341-3 0  9993
2 63080  70.0013 289.7759 0002454 267.2237  92.8642 14.98341951 41068
STARLINK-32895          
1 63081U 25037E   25316.63019649  .00007117  00000+0  60311-3 0  9999
2 63081  70.0013 289.7644 0002339 273.9340  86.1551 14.98364872 40929
STARLINK-32933          
1 63082U 25037F   25316.87233866  .00009782  00000+0  82560-3 0  9995
2 63082  70.0043 289.0012 0002155 294.4491  65.6443 14.98370068 41046
STARLINK-32932          
1 63083U 25037G   25316.67607900  .00009234  00000+0  78071-3 0  9992
2 63083  70.0008 289.5259 0002835 261.8624  98.2213 14.98329085 40934
STARLINK-32908          
1 63084U 25037H   25316.66775227  .00027592  00000+0  23105-2 0  9994
2 63084  70.0022 289.4917 0003078 264.4495  95.6313 14.98340497 40938
STARLINK-32505          
1 63085U 25037J   25316.63035688  .00010480  00000+0  88451-3 0  9996
2 63085  70.0008 289.7625 0002754 275.2936  84.7909 14.98344282 41018
STARLINK-32914          
1 63086U 25037K   25316.67190670  .00009684  00000+0  81780-3 0  9996
2 63086  70.0013 289.5043 0002742 276.4521  83.6326 14.98352336 41073
STARLINK-32918          
1 63087U 25037L   25316.28804531  .00005810  00000+0  49424-3 0  9998
2 63087  70.0009 290.5752 0002802 270.0023  90.0815 14.98336303 41107
STARLINK-32912          
1 63088U 25037M   25316.64285045  .00007636  00000+0  64672-3 0  9992
2 63088  70.0010 289.4076 0002678 272.6006  87.4846 14.98349544 41178
STARLINK-32910          
1 63089U 25037N   25316.67623330  .00004898  00000+0  41787-3 0  9998
2 63089  70.0021 289.5215 0003371 302.2079  57.8753 14.98338303 41076
STARLINK-32903          
1 63090U 25037P   25316.30471955  .00006268  00000+0  53233-3 0  9996
2 63090  70.0005 290.2375 0002392 274.9306  85.1580 14.98352150 40882
STARLINK-32925          
1 63091U 25037Q   25316.64268479  .00007218  00000+0  61182-3 0  9997
2 63091  70.0009 289.4046 0002925 271.7205  88.3619 14.98348789 41014
STARLINK-32924          
1 63092U 25037R   25316.25047472  .00009226  00000+0  77960-3 0  9995
2 63092  70.0002 290.4468 0003369 262.5330  97.5446 14.98347671 41017
STARLINK-32900          
1 63093U 25037S   25316.26299735  .00012179  00000+0  10256-2 0  9993
2 63093  70.0009 290.4886 0003147 271.0745  89.0053 14.98369692 40878
STARLINK-32927          
1 63094U 25037T   25316.29221963  .00012563  00000+0  10582-2 0  9994
2 63094  70.0017 290.5940 0002780 253.6720 106.4134 14.98354653 40966
STARLINK-32907          
1 63095U 25037U   25316.27970152  .00013063  00000+0  11003-2 0  9999
2 63095  70.0004 290.5452 0003222 268.9762  91.1028 14.98338610 40965
STARLINK-32911          
1 63096U 25037V   25316.63436427  .00009896  00000+0  83526-3 0  9991
2 63096  70.0013 289.7761 0002491 269.6550  90.4323 14.98364022 41067
STARLINK-32923          
1 63097U 25037W   25316.64685208  .00011927  00000+0  10049-2 0  9993
2 63097  70.0027 289.4212 0002502 274.1082  85.9791 14.98360069 41071
STARLINK-32913          
1 63098U 25037X   25316.25881680  .00013100  00000+0  11027-2 0  9995
2 63098  69.9995 290.4668 0003110 270.0514  90.0289 14.98362975 41023
STARLINK-11629 [DTC]    
1 63104U 25039A   25316.79567865  .00452653  00000+0  32982-2 0  9993
2 63104  43.0001 221.2154 0003239 248.7286 111.3236 15.71158995 41233
STARLINK-11624 [DTC]    
1 63105U 25039B   25316.77548523  .00310693  00000+0  23214-2 0  9997
2 63105  42.9997 221.9470 0002127 238.0150 122.0511 15.70983636 41222
STARLINK-11584 [DTC]    
1 63106U 25039C   25316.77457485  .00437033  00000+0  32069-2 0  9990
2 63106  42.9996 221.9391 0001390 230.9910 129.0834 15.71036504 41229
STARLINK-11627 [DTC]    
1 63107U 25039D   25316.74271333  .00395057  00000+0  28969-2 0  9997
2 63107  42.9991 221.6818 0002327 229.8225 130.2439 15.71178312 41222
STARLINK-11632 [DTC]    
1 63108U 25039E   25316.75863903  .00513139  00000+0  36967-2 0  9999
2 63108  42.9996 221.8105 0002419 227.4687 132.5976 15.71251373 41227
STARLINK-11625 [DTC]    
1 63109U 25039F   25316.12815547  .00219959  00000+0  16710-2 0  9999
2 63109  42.9984 225.6861 0001204 276.8026  83.2704 15.70864168 41123
STARLINK-11601 [DTC]    
1 63110U 25039G   25316.74802432  .00374732  00000+0  27575-2 0  9990
2 63110  42.9994 221.7239 0002539 229.2398 130.8250 15.71155731 41224
STARLINK-11630 [DTC]    
1 63111U 25039H   25316.83336806  .00035652  00000+0  28134-3 0  9996
2 63111  43.0003 221.5094 0002002 263.1762  99.8189 15.70737608  5933
STARLINK-11590 [DTC]    
1 63112U 25039J   25316.14408120  .00243221  00000+0  18404-2 0  9991
2 63112  43.0004 225.8126 0001982 271.1931  88.8709 15.70887359 41127
STARLINK-11598 [DTC]    
1 63113U 25039K   25316.11753688  .00433236  00000+0  31947-2 0  9995
2 63113  43.0000 225.5979 0001544 288.6601  71.4099 15.70931127 41121
